street,zip,city,name,cemetery_type,

"Arberger Heerstr. 77","28307","Bremen","Ahrbergen","Diamond cremation ğŸ’"
"Breite StraÃŸe 38","14199","Berlin","Alt-Schmargendorf","Cemetery burial ğŸ’"
"SutelstraÃŸe 20","30659","Hannover","Alter BothfelderÂ Friedhof","Cemetery burial ğŸ’"
"RuhrstraÃŸe 103","22761","Hamburg","Bahrenfeld-Bornkamp","Urn cremation âš±ï¸"
"BrunnenstraÃŸe 155","10115","Berlin","Berlin","Urn cremation âš±ï¸"
"Kleewiesenweg 2","71336","Waiblingen","Bittenfeld","Tree burial ğŸŒ²"
"SÃ¼lldorfer Kirchenweg 151","22589","Hamburg","Blankenese","Urn cremation âš±ï¸"
"Grevenbroicher StraÃŸe","50829","KÃ¶ln","BocklemÃ¼nd","Diamond cremation ğŸ’"
"WesterwaldstraÃŸe","45133","Essen","Bredeney","Tree burial ğŸŒ²"
"HovenstraÃŸe","51109","KÃ¶ln","BrÃ¼ck, HovenstraÃŸe","Tree burial ğŸŒ²"
"Lehmbacher Weg","51109","KÃ¶ln","BrÃ¼ck, Lehmbacher Weg","Urn cremation âš±ï¸"
"Worringstr. 4 a","45289","Essen","Burgaltendorf","Diamond cremation ğŸ’"
"Thujaweg","50765","KÃ¶ln","Chorweiler","Diamond cremation ğŸ’"
"Thurner Str.","51069","KÃ¶ln","DellbrÃ¼ck","Diamond cremation ğŸ’"
"Harenberger Meile","30926","Hannover","Englischer Friedhof","Urn cremation âš±ï¸"
"Calenberger StraÃŸe  19-21","30823","Garbsen","Ev.-luth. Kirchengemeinde Alt- Garbsen","Tree burial ğŸŒ²"
"Feuchter Strasse 21 -24","90475","NÃ¼rnberg","Fischbach","Diamond cremation ğŸ’"
"Orli-Wald-Allee  2","30173","Hannover","Friedhof Engesohde","Cemetery burial ğŸ’"
"Â Am Kahlen Berg 15","30826","Garbsen","Friedhof Evangelische Kirchengemeinde Horst, Frielingen","Cemetery burial ğŸ’"
"Planetenring  5","30823","Garbsen","Friedhof Garbsen","Tree burial ğŸŒ²"
"Am Erdbeerfeld","30880","Laatzen","Friedhof im Heidfeld","Diamond cremation ğŸ’"
"KiepertstraÃŸe  10","30419","Hannover","FriedhofÂ Herrenhausen","Tree burial ğŸŒ²"
"Garbsener LandstraÃŸe","30419","Hannover","FriedhofÂ Marienwerder","Cemetery burial ğŸ’"
"Schildhornweg 33","14193","Berlin","Grunewald-Forst","Tree burial ğŸŒ²"
"Bergkirchner StraÃŸe 229","32429","Minden","Haddenhausen","Diamond cremation ğŸ’"
"WaldstraÃŸe","30629","Hannover","HannoverÂ Stadtfriedhof Misburg","Cemetery burial ğŸ’"
"FriedhofstraÃŸe 37/1","88212","Ravensburg","Hauptfriedhof","Tree burial ğŸŒ²"
"Hausener Weg 61a","60488","Frankfurt/M.","Hausen","Cemetery burial ğŸ’"
"Trakehner Allee 1","14053","Berlin","HeerstraÃŸe","Diamond cremation ğŸ’"
"Kleiner Hillen  3","30559","Hannover","Jakobifriedhof","Cemetery burial ğŸ’"
"Von-Coels-StraÃŸe","52080","Aachen","JÃ¼d. Friedhof Eilendorf","Cemetery burial ğŸ’"
"LÃ¼tticher StraÃŸe","52074","Aachen","JÃ¼d. Friedhof LÃ¼tticher StraÃŸe","Cemetery burial ğŸ’"
"Burgwedeler StraÃŸe 90","30657","Hannover","JÃ¼discher FriedhofÂ Bothfeld","Cemetery burial ğŸ’"
"Hindenburgstr.30","28717","Bremen","Lesum","Urn cremation âš±ï¸"
"Keplerstr.Â 33","44338","Dortmund","LÃ¼tgendortmund","Diamond cremation ğŸ’"
"PetershÃ¤ger Weg 238","32425","Minden","Minderheide","Diamond cremation ğŸ’"
"Moorfleeter Kirchenweg 64","22113","Hamburg","Moorfleet","Cemetery burial ğŸ’"
"Am Stadtpark  16","31275","Lehrte","Neuer Friedhof","Diamond cremation ğŸ’"
"An der Strangriede  41","30167","Hannover","Neuer St. NikolaiÂ Friedhof","Cemetery burial ğŸ’"
"TheodorstraÃŸe 14","30159","Hannover","NeustÃ¤dter Friedhof","Tree burial ğŸŒ²"
"Ungererstr.130","80805","MÃ¼nchen","Nordfriedhof","Urn cremation âš±ï¸"
"St-Martinsplatz 1","81541","MÃ¼nchen","Ostfriedhof","Cemetery burial ğŸ’"
"BernadottestraÃŸe 32","22763","Hamburg","Ottensen","Cemetery burial ğŸ’"
"Georgenkirchweg 1","09117","Chemnitz","Rabenstein","Urn cremation âš±ï¸"
"An der Sang  30","57271","Hilchenbach","RuheForst Hilchenbach","Tree burial ğŸŒ²"
"SalzstraÃŸe 81","09113","Chemnitz","Schlossfriedhof","Cemetery burial ğŸ’"
"Haslacher Weg","51063","KÃ¶ln","SchÃ¶nrather Hof","Cemetery burial ğŸ’"
"BecksiepenstraÃŸe","45138","Essen","Siepenfriedhof","Cemetery burial ğŸ’"
"Sinstorfer Kirchweg 23","21077","Hamburg","Sinstorf","Tree burial ğŸŒ²"
"Zinzendorfstr.14","09116","Chemnitz","St. MatthÃ¤us","Cemetery burial ğŸ’"
"MÃ¶nckebergallee","30453","Hannover","Stadtfriedhof Ahlem","Tree burial ğŸŒ²"
"Â Laher-Feld-StraÃŸe  19","30659","Hannover","Stadtfriedhof Lahe","Cemetery burial ğŸ’"
"StÃ¶ckener StraÃŸe 6","30419","Hannover","Stadtfriedhof StÃ¶cken","Cemetery burial ğŸ’"
"Im Born","30455","Hannover","StadtfriedhofÂ Badenstedt","Cemetery burial ğŸ’"
"Â GÃ¶ttinger Chaussee  246","30459","Hannover","StadtfriedhofÂ Ricklingen","Cemetery burial ğŸ’"
"GarkenburgstraÃŸe  43","30519","Hannover","StadtfriedhofÂ Seelhorst","Cemetery burial ğŸ’"
"","30419","Hannover","StadtfriedhofÂ Vinnhorst","Urn cremation âš±ï¸"
"Wartburgstr.47","09126","Chemnitz","StÃ¤dtischer Friedhof","Cemetery burial ğŸ’"
"OstfeldstraÃŸe  10","30559","Hannover","StadtteilfriedhofÂ Anderten","Urn cremation âš±ï¸"
"FÃ¼rstenriederstr.288","81377","MÃ¼nchen","Waldfriedhof alter Teil","Urn cremation âš±ï¸"
"Lorettoplatz 3","81377","MÃ¼nchen","Waldfriedhof neuer Teil","Cemetery burial ğŸ’"
"Baldurstr.28","80637","MÃ¼nchen","Westfriedhof","Cemetery burial ğŸ’"
"Eversbuschstr. 9a","80999","MÃ¼nchen","(Park-)Friedhof Untermenzing","Cemetery burial ğŸ’"
"Kirchwinkel 4","09127","Chemnitz","Adelsberg","Urn cremation âš±ï¸"
"MÃ¶nckebergallee","30453","Hannover","Ahlem","Diamond cremation ğŸ’"
"GÃ¤rtnerstr7","83026","Rosenheim","Aising","Tree burial ğŸŒ²"
"GrabenÃ¤cker 2","78727","Oberndorf/Neckar","Aistaig","Tree burial ğŸŒ²"
"OsthofstraÃŸe 8","48163","MÃ¼nster","Albachten","Urn cremation âš±ï¸"
"Vordere Kirchgasse 2","88213","Ravensburg","Alberskirch","Urn cremation âš±ï¸"
"","98527","Suhl","Albrechts","Tree burial ğŸŒ²"
"Friedhofsweg","26389","Wilhelmshaven","Aldenburg","Cemetery burial ğŸ’"
"Dittfeldstr. 141","47179","Duisburg","Aldenrade","Diamond cremation ğŸ’"
"Eversbuschstr. 197","80999","MÃ¼nchen","Allach","Tree burial ğŸŒ²"
"AllermÃ¶her Deich 99","21037","Hamburg","AllermÃ¶he-Reitbrook","Urn cremation âš±ï¸"
"Zum Dermbach","36251","Bad","Allmershausen","Cemetery burial ğŸ’"
"HochstraÃŸe","45768","Marl","Alt Marl","Urn cremation âš±ï¸"
"An der Aumunder Kirche 4","28757","Bremen","Alt-Aumund","Diamond cremation ğŸ’"
"Kappler StraÃŸe","79117","Freiburg","Alt-Littenweiler","Urn cremation âš±ï¸"
"Tunnelstr.5-11","10245","Berlin","Alt-Strahlau","Cemetery burial ğŸ’"
"KÃ¶nigstr. 92","47178","Duisburg","Alt-Walsum","Urn cremation âš±ï¸"
"Kirchenstegel 11","21039","Hamburg","Altengamme","Tree burial ğŸŒ²"
"Robert-Nacke-StraÃŸe 75","33729","Bielefeld","Altenhagen","Cemetery burial ğŸ’"
"Chemnitzer Str. 32","01187","Dresden","Alter Annenfriedhof","Tree burial ğŸŒ²"
"Bornheimer StraÃŸe","53111","Bonn","Alter Friedhof","Urn cremation âš±ï¸"
"Herdweg 105","64285","Darmstadt","Alter Friedhof","Cemetery burial ğŸ’"
"Schwabacher Str. 12","90537","Feucht","Alter Friedhof","Urn cremation âš±ï¸"
"SchulstraÃŸe","49479","IbbenbÃ¼ren","Alter Friedhof","Cemetery burial ğŸ’"
"Blomberger StraÃŸe","32756","Detmold","Alter Friedhof","Cemetery burial ğŸ’"
"Amberger StraÃŸe","91217","Hersbruck","Alter Friedhof","Cemetery burial ğŸ’"
"FriedhofstraÃŸe 21","63065","Offenbach","Alter Friedhof","Cemetery burial ğŸ’"
"Langelohweg","32758","Detmold","Alter Friedhof Heidenoldendorf","Cemetery burial ğŸ’"
"RitterstraÃŸe","56076","Koblenz","Alter Friedhof Pfaffendorf","Tree burial ğŸŒ²"
"Stoddart-/ Wielandstr.","32758","Detmold","Alter Friedhof Pivitsheide VH","Tree burial ğŸŒ²"
"Oerlinghauser StraÃŸe","32758","Detmold","Alter Friedhof Pivitsheide VL","Urn cremation âš±ï¸"
"FriedrichstraÃŸeÂ 54","32427","Minden","Alter Friedhof/Botanische Garten","Urn cremation âš±ï¸"
"Prager StraÃŸe","04103","Leipzig","Alter Johannisfriedhof","Tree burial ğŸŒ²"
"FriedrichstraÃŸeÂ 54","01067","Dresden","Alter katholischer Friedhof","Tree burial ğŸŒ²"
"SÃ¼dstern 8-12","10961","Berlin","Alter Luisenstadt Friedhof","Tree burial ğŸŒ²"
"Arcisstr.45","80799","MÃ¼nchen","Alter Nordfriedhof","Cemetery burial ğŸ’"
"Kurt-Schumacher-StraÃŸe 57","86165","Augsburg","Alter Ostfriedhof","Cemetery burial ğŸ’"
"HalberstÃ¤dter StraÃŸe 132","39112","Magdeburg","Alter Sudenburger Friedhof","Urn cremation âš±ï¸"
"Thalkirchnerstr.17","80337","MÃ¼nchen","Alter SÃ¼dfriedhof","Cemetery burial ğŸ’"
"Eichhofstr. 48a","24116","Kiel","Alter/neuer Urnenfriedhof","Tree burial ğŸŒ²"
"Am SteinbrÃ¼nnle 2","78727","Oberndorf/Neckar","Altoberndorf","Diamond cremation ğŸ’"
"Stadionstr.5","22525","Hamburg","Altona","Cemetery burial ğŸ’"
"Godenweg","28779","Bremen","Am Godenweg","Urn cremation âš±ï¸"
"HallostraÃŸe","45309","Essen","Am Hallo","Tree burial ğŸŒ²"
"Hellweg","45279","Essen","Am Hellweg","Tree burial ğŸŒ²"
"RichtstraÃŸe","45359","Essen","Am Schildberg","Cemetery burial ğŸ’"
"","96450","Coburg","Am Schlossberg","Tree burial ğŸŒ²"
"Ringkuhle 7","32423","Minden","Aminghausen","Tree burial ğŸŒ²"
"","06110","Halle/Saale","Ammendorf","Tree burial ğŸŒ²"
"OstfeldstraÃŸe","30559","Hannover","Anderten","Diamond cremation ğŸ’"
"Am Hohen Ufer 100","48167","MÃ¼nster","Angelmodde/Am Hohen Ufer","Cemetery burial ğŸ’"
"Homannstr.58","48167","MÃ¼nster","Angelmodde/Homannstr.","Cemetery burial ğŸ’"
"Rahmerstr.","40489","DÃ¼sseldorf","Angermund","Cemetery burial ğŸ’"
"Kortenstr.Â 30","44287","Dortmund","Aplerbeck","Cemetery burial ğŸ’"
"KÃ¶ln-Berliner-Str.Â 88","44287","Dortmund","Aplerbeck Mitte","Tree burial ğŸŒ²"
"Im FlÃ¼rchen","56077","Koblenz","Arenberg/Immendorf","Tree burial ğŸŒ²"
"WeiterstÃ¤dter StraÃŸe 46","64291","Darmstadt","Arheilger Friedhof","Cemetery burial ğŸ’"
"In der TrÃ¤nke 24","28279","Bremen","Arsten","Urn cremation âš±ï¸"
"UnterdorfstraÃŸe","56077","Koblenz","Arzheim","Urn cremation âš±ï¸"
"Friedhofsweg","36251","Bad","Asbach","Urn cremation âš±ï¸"
"Kolonnenweg","56077","Koblenz","Asterstein","Tree burial ğŸŒ²"
"Freihamer Weg 73","81249","MÃ¼nchen","Aubing","Cemetery burial ğŸ’"
"Am Hauptfriedhof 1","15236","Frankfurt/Oder","Auf dem Hauptfriedhof Frankfurt (Oder)","Cemetery burial ğŸ’"
"Alt-Auringen","64207","Wiesbaden","Auringen","Urn cremation âš±ï¸"
"Brodweg 20c","38104","Braunschweig","AuslÃ¤nderfriedhof","Cemetery burial ğŸ’"
"","34454","Bad","Bad Arolsen","Diamond cremation ğŸ’"
"","33014","Bad","Bad Driburg","Cemetery burial ğŸ’"
"Karl-Marx-StraÃŸe 1","16259","Bad","Bad Freienwalde","Tree burial ğŸŒ²"
"Schloss Wittgenstein 4","57334","Bad","Bad Laasphe","Diamond cremation ğŸ’"
"Auf dem Katzenberg","53902","Iversheim","Bad MÃ¼nstereifel","Diamond cremation ğŸ’"
"EichenfeldstraÃŸe,","30455","Hannover","Badenstedt (alt) a.D.","Cemetery burial ğŸ’"
"Im Born","30455","Hannover","Badenstedt (neu)","Cemetery burial ğŸ’"
"Holstenkamp 91","22525","Hamburg","Bahrenfeld-Holstenkamp","Cemetery burial ğŸ’"
"Barloer RingstraÃŸe","46397","Bocholt","Barlo","Urn cremation âš±ï¸"
"LichtÃ¤cker 1","88213","Ravensburg","Bavendorf","Diamond cremation ğŸ’"
"St.-Kolumban-StraÃŸe 12","88213","Ravensburg","Bavendorf","Tree burial ğŸŒ²"
"HarpenstraÃŸe 26","45897","Gelsenkirchen","Beckhausen-Sutum","Cemetery burial ğŸ’"
"HochmÃ¶ssinger StraÃŸe 8","78727","Oberndorf/Neckar","Beffendorf","Cemetery burial ğŸ’"
"","96450","Coburg","Beiersdorf","Diamond cremation ğŸ’"
"","36251","Bad","Beiershausen","Diamond cremation ğŸ’"
"Hohenzollernstr. 32","76135","Karlsruhe","Beiertheim","Cemetery burial ğŸ’"
"Waiblinger StraÃŸe","71334","Waiblingen","Beinstein","Diamond cremation ğŸ’"
"Paulistr.","40597","DÃ¼sseldorf","Benrath","Tree burial ğŸŒ²"
"Im Dorfe","32758","Detmold","Bentrup","Diamond cremation ğŸ’"
"Kunzenweg 1a","79117","Freiburg","BergÃ¤cker","Diamond cremation ğŸ’"
"August-Bebel-StraÃŸe 200","21029","Hamburg","Bergedorf (neu)","Cemetery burial ğŸ’"
"MarktstraÃŸe 87B","60388","Frankfurt/M.","Bergen","Urn cremation âš±ï¸"
"HackstraÃŸe 84","70190","Stuttgart","Bergfriedhof","Cemetery burial ğŸ’"
"Scheppener Weg","45239","Essen","Bergfriedhof","Cemetery burial ğŸ’"
"Remigiusgasse 1","86199","Augsburg","Bergheim","Cemetery burial ğŸ’"
"Volksdorfer Damm 261","22395","Hamburg","Bergstedt","Diamond cremation ğŸ’"
"Am Traubengarten 1","60435","Frankfurt/M.","Berkersheim","Cemetery burial ğŸ’"
"Brunnenstr.31/1","73734","Esslingen","Berkheim","Tree burial ğŸŒ²"
"Im Schlage","32760","Detmold","Berlebeck","Cemetery burial ğŸ’"
"Heinrichwingertsweg 63","64285","Darmstadt","Bessunger Friedhof","Cemetery burial ğŸ’"
"TrÃ¤nkestraÃŸe","79114","Freiburg","Betzenhausen","Cemetery burial ğŸ’"
"Platanenweg","53225","Bonn","Beuel","Urn cremation âš±ï¸"
"BechtsbÃ¼ttler StraÃŸe","38110","Braunschweig","Bevenrode","Tree burial ğŸŒ²"
"Zum Engel","39112","Magdeburg","Beyerndorf","Cemetery burial ğŸ’"
"Dietesheimer StraÃŸeÂ 41","63073","Offenbach","Bieber","Urn cremation âš±ï¸"
"Bernhard-May-StraÃŸe 26","65203","Wiesbaden","Biebrich","Tree burial ğŸŒ²"
"Altmarkstr. 22A","38110","Braunschweig","Bienrode","Tree burial ğŸŒ²"
"Am Wolfsfeld","65191","Wiesbaden","Bierstadt","Urn cremation âš±ï¸"
"Biewerer StraÃŸe","54293","Trier","Biewer","Cemetery burial ğŸ’"
"WelfenstraÃŸe 31","70599","Stuttgart","Birkach","Cemetery burial ğŸ’"
"SÃ¼lldorfer Kirchenweg 151","22589","Hamburg","Blankenese","Cemetery burial ğŸ’"
"SÃ¼lldorfer Kirchenweg 151","22589","Hamburg","Blankenese","Diamond cremation ğŸ’"
"Harpener Str.1","44791","Bochum","BlumenstraÃŸe","Diamond cremation ğŸ’"
"Landrat-Christians-Str. 78","28779","Bremen","Blumenthal","Urn cremation âš±ï¸"
"Neuenkirchner Weg","28779","Bremen","Blumenthal","Diamond cremation ğŸ’"
"Turnerstr.201","28779","Bremen","Blumenthal Waldfriedhof","Cemetery burial ğŸ’"
"KaltenbergstraÃŸe 31","78727","Oberndorf/Neckar","Bochingen","Urn cremation âš±ï¸"
"Ginnheimer LandstraÃŸe 97","60487","Frankfurt/M.","Bockenheim","Urn cremation âš±ï¸"
"Venloerstr. 1152","50829","KÃ¶ln","BocklemÃ¼nd","Tree burial ğŸŒ²"
"Am Badezentrum 141","47800","Krefeld","Bockum","Tree burial ğŸŒ²"
"Bogenhauser Kirchplatz 1","81675","MÃ¼nchen","Bogenhausen","Diamond cremation ğŸ’"
"Eing. Mehringdamm 21","10961","Berlin","BÃ¶hmisch-luth.-Bethlehemsfriedhof 1","Cemetery burial ğŸ’"
"SteigstraÃŸe 5","78727","Oberndorf/Neckar","Boll","Urn cremation âš±ï¸"
"Klinkerstr.1","32429","Minden","BÃ¶llhorst","Urn cremation âš±ï¸"
"Im Storchenhain 24","60437","Frankfurt/M.","Bonames","Diamond cremation ğŸ’"
"Wulkower StraÃŸe","15234","Frankfurt/Oder","BooÃŸen","Urn cremation âš±ï¸"
"Katrepeler Landstr. 9","28357","Bremen","Borgfeld","Urn cremation âš±ï¸"
"Dortelweiler StraÃŸe 104","60389","Frankfurt/M.","Bornheim","Cemetery burial ğŸ’"
"Burgwedeler StraÃŸe 60","30657","Hannover","Bothfeld","Tree burial ğŸŒ²"
"Friedenstal 2","24250","Bothkamp","Bothkamp/Eiderquelle","Diamond cremation ğŸ’"
"BauernwaldstraÃŸe 46","70195","Stuttgart","Botnang","Diamond cremation ğŸ’"
"Provinzialstr.Â 320","44388","Dortmund","BÃ¶vinghausen","Tree burial ğŸŒ²"
"Boxbergweg 27","90431","NÃ¼rnberg","Boxdorf","Diamond cremation ğŸ’"
"Kerksiekweg","33729","Bielefeld","Brake alt","Diamond cremation ğŸ’"
"Grafenheider StraÃŸe 117","33729","Bielefeld","Brake neu","Urn cremation âš±ï¸"
"Berner Chaussee 50-56","22175","Hamburg","Bramfeld","Urn cremation âš±ï¸"
"GehnstraÃŸe","49565","Bramsche-Achmer","Bramsche-OsnabrÃ¼cker Land","Diamond cremation ğŸ’"
"SickingmÃ¼hler StraÃŸe","45768","Marl","Brassert (Hauptfriedhof)","Cemetery burial ğŸ’"
"BergwiesenstraÃŸe","65207","Wiesbaden","Breckenheim","Urn cremation âš±ï¸"
"Lehnstedter Weg","28790","Schwanewede","Bremer Schweiz","Tree burial ğŸŒ²"
"WaldstraÃŸe","27432","BremervÃ¶rde","BremervÃ¶rde","Urn cremation âš±ï¸"
"Brodswinden","91522","Ansbach","Brodswinden St. BartholomÃ¤us","Cemetery burial ğŸ’"
"RochusstraÃŸe","41179","MÃ¶nchengladbach","Broich-Peel","Urn cremation âš±ï¸"
"Steinbrink 12","38122","Braunschweig","Broitzem","Cemetery burial ğŸ’"
"Brokhauser StraÃŸe","32758","Detmold","Brokhausen","Tree burial ğŸŒ²"
"Zuckerbusch","39114","Magdeburg","BrÃ¼ckfeld","Urn cremation âš±ï¸"
"MalterstraÃŸe","56070","Koblenz","Bubenheim","Diamond cremation ğŸ’"
"ZimmerstraÃŸe","47249","Duisburg","Buchholz","Cemetery burial ğŸ’"
"PascalstraÃŸe 70","70569","Stuttgart","Buchrainfriedhof","Cemetery burial ğŸ’"
"Alt Fermersleben 104","39122","Magdeburg","Buckau","Cemetery burial ğŸ’"
"Im Heidekamp 24","47167","Duisburg","BÃ¼gelstraÃŸe","Diamond cremation ğŸ’"
"Litzenhardtstr.142","76135","Karlsruhe","Bulach","Diamond cremation ğŸ’"
